NORAD_CAT_ID,OBJECT_NAME,OBJECT_TYPE,EPOCH,MEAN_MOTION,ECCENTRICITY,INCLINATION,RA_OF_ASC_NODE,ARG_OF_PERICENTER,MEAN_ANOMALY,BSTAR,MEAN_MOTION_DOT,MEAN_MOTION_DDOT,TLE_LINE0,TLE_LINE1,TLE_LINE2,SEMIMAJOR_AXIS,PERIOD,APOGEE,PERIGEE,DECAYED
49740.0,STARLINK-3226,PAYLOAD,2023-10-28 12:18:22,15.08826088,0.0001475,53.2188,64.0461,90.6677,269.4484,-1.8889e-05,-5.88e-06,0.0,0 STARLINK-3226,1 49740U 21115S   23301.51275614 -.00000588  00000-0 -18889-4 0  9995,2 49740  53.2188  64.0461 0001475  90.6677 269.4484 15.08826088106332,6917.923,95.438,540.808,538.768,0.0
49740.0,STARLINK-3226,PAYLOAD,2023-10-28 13:53:44,15.08827996,0.0001548,53.2187,63.7488,89.8776,270.2394,-0.00010745,-1.997e-05,0.0,0 STARLINK-3226,1 49740U 21115S   23301.57898927 -.00001997  00000-0 -10745-3 0  9996,2 49740  53.2187  63.7488 0001548  89.8776 270.2394 15.08827996105234,6917.917,95.438,540.853,538.711,0.0
49740.0,STARLINK-3226,PAYLOAD,2023-10-28 15:29:07,15.08830937,0.0001454,53.218,63.4526,83.3028,276.8129,-7.2446e-05,-1.44e-05,0.0,0 STARLINK-3226,1 49740U 21115S   23301.64522841 -.00001440  00000-0 -72446-4 0  9993,2 49740  53.2180  63.4526 0001454  83.3028 276.8129 15.08830937106353,6917.908,95.438,540.779,538.767,0.0
49740.0,STARLINK-3226,PAYLOAD,2023-10-29 01:01:26,15.0884151,0.000154,53.2183,61.6684,90.8686,269.2483,9.8358e-05,1.278e-05,0.0,0 STARLINK-3226,1 49740U 21115S   23302.04266474  .00001278  00000-0  98358-4 0  9992,2 49740  53.2183  61.6684 0001540  90.8686 269.2483 15.08841510106415,6917.876,95.437,540.806,538.675,0.0
49740.0,STARLINK-3226,PAYLOAD,2023-10-29 12:09:07,15.08858029,0.000133,53.2167,59.5842,73.8742,286.2396,0.00088395,0.00013815,0.0,0 STARLINK-3226,1 49740U 21115S   23302.50634011  .00013815  00000-0  88395-3 0  9998,2 49740  53.2167  59.5842 0001330  73.8742 286.2396 15.08858029106482,6917.825,95.436,540.61,538.77,0.0
49740.0,STARLINK-3226,PAYLOAD,2023-10-29 13:44:30,15.08867094,0.0001385,53.2167,59.2862,74.3865,285.728,0.0013309,0.00020972,0.0,0 STARLINK-3226,1 49740U 21115S   23302.57257944  .00020972  00000-0  13309-2 0  9995,2 49740  53.2167  59.2862 0001385  74.3865 285.7280 15.08867094105389,6917.798,95.436,540.621,538.704,0.0
49740.0,STARLINK-3226,PAYLOAD,2023-10-29 16:55:16,15.08881685,0.0001422,53.2167,58.6926,69.4727,290.6417,0.0017554,0.00027792,0.0,0 STARLINK-3226,1 49740U 21115S   23302.70505557  .00027792  00000-0  17554-2 0  9999,2 49740  53.2167  58.6926 0001422  69.4727 290.6417 15.08881685106512,6917.753,95.435,540.602,538.634,0.0
49740.0,STARLINK-3226,PAYLOAD,2023-10-30 11:59:54,15.08834324,0.0002663,53.2175,55.1188,139.4065,220.7126,0.00070936,0.00011018,0.0,0 STARLINK-3226,1 49740U 21115S   23303.49993951  .00011018  00000-0  70936-3 0  9993,2 49740  53.2175  55.1188 0002663 139.4065 220.7126 15.08834324106636,6917.898,95.438,541.605,537.921,0.0
49740.0,STARLINK-3226,PAYLOAD,2023-10-31 13:26:06,15.08832182,0.0001171,53.2169,50.3661,95.629,264.4836,0.0004326,6.602e-05,0.0,0 STARLINK-3226,1 49740U 21115S   23304.55979243  .00006602  00000-0  43260-3 0  9992,2 49740  53.2169  50.3661 0001171  95.6290 264.4836 15.08832182106798,6917.904,95.438,540.579,538.959,0.0
49740.0,STARLINK-3226,PAYLOAD,2023-11-01 13:16:53,15.08842255,0.0001389,53.2169,45.9077,83.9169,276.1981,0.00033209,5.002e-05,0.0,0 STARLINK-3226,1 49740U 21115S   23305.55339413  .00005002  00000-0  33209-3 0  9997,2 49740  53.2169  45.9077 0001389  83.9169 276.1981 15.08842255105832,6917.873,95.437,540.699,538.778,0.0
49740.0,STARLINK-3226,PAYLOAD,2023-11-02 13:07:39,15.08848528,0.0001481,53.2177,41.4454,96.1314,263.9847,0.0002484,3.668e-05,0.0,0 STARLINK-3226,1 49740U 21115S   23306.54698967  .00003668  00000-0  24840-3 0  9996,2 49740  53.2177  41.4454 0001481  96.1314 263.9847 15.08848528107096,6917.854,95.437,540.744,538.695,0.0
49740.0,STARLINK-3226,PAYLOAD,2023-11-03 11:23:04,15.08833857,0.0001491,53.2175,37.2842,87.995,272.1213,9.2856e-08,-2.86e-06,0.0,0 STARLINK-3226,1 49740U 21115S   23307.47435914 -.00000286  00000-0  92856-7 0  9990,2 49740  53.2175  37.2842 0001491  87.9950 272.1213 15.08833857107237,6917.899,95.438,540.796,538.733,0.0
49740.0,STARLINK-3226,PAYLOAD,2023-11-03 12:58:27,15.08834997,0.0001473,53.2177,36.9859,79.9526,280.1632,3.571e-06,-2.31e-06,0.0,0 STARLINK-3226,1 49740U 21115S   23307.54059920 -.00000231  00000-0  35710-5 0  9991,2 49740  53.2177  36.9859 0001473  79.9526 280.1632 15.08834997106131,6917.896,95.438,540.78,538.742,0.0
49740.0,STARLINK-3226,PAYLOAD,2023-11-03 22:30:46,15.08833234,0.0001521,53.2177,35.2017,80.3664,279.75,4.114e-05,3.67e-06,0.0,0 STARLINK-3226,1 49740U 21115S   23307.93804248  .00000367  00000-0  41140-4 0  9997,2 49740  53.2177  35.2017 0001521  80.3664 279.7500 15.08833234106199,6917.901,95.438,540.818,538.714,0.0
49740.0,STARLINK-3226,PAYLOAD,2023-11-04 12:49:14,15.08849932,0.0001498,53.2178,32.5259,78.3094,281.8066,0.00036634,5.549e-05,0.0,0 STARLINK-3226,1 49740U 21115S   23308.53419833  .00005549  00000-0  36634-3 0  9994,2 49740  53.2178  32.5259 0001498  78.3094 281.8066 15.08849932106288,6917.85,95.437,540.751,538.679,0.0
49740.0,STARLINK-3226,PAYLOAD,2023-11-04 22:21:33,15.08844816,0.0001599,53.2184,30.7427,80.8448,279.2725,0.00042191,6.434e-05,0.0,0 STARLINK-3226,1 49740U 21115S   23308.93164036  .00006434  00000-0  42191-3 0  9999,2 49740  53.2184  30.7427 0001599  80.8448 279.2725 15.08844816106341,6917.866,95.437,540.837,538.625,0.0
49740.0,STARLINK-3226,PAYLOAD,2023-11-05 04:43:06,15.08848644,0.0001557,53.2181,29.5532,78.1746,281.9421,0.00038494,5.845e-05,0.0,0 STARLINK-3226,1 49740U 21115S   23309.19659866  .00005845  00000-0  38494-3 0  9994,2 49740  53.2181  29.5532 0001557  78.1746 281.9421 15.08848644107499,6917.854,95.437,540.796,538.642,0.0
49740.0,STARLINK-3226,PAYLOAD,2023-11-05 12:40:00,15.08869822,0.0001345,53.218,28.0656,79.9503,280.1641,0.00067582,0.00010493,0.0,0 STARLINK-3226,1 49740U 21115S   23309.52778838  .00010493  00000-0  67582-3 0  9997,2 49740  53.2180  28.0656 0001345  79.9503 280.1641 15.08869822107546,6917.789,95.436,540.585,538.724,0.0
49740.0,STARLINK-3226,PAYLOAD,2023-11-05 22:12:19,15.0887041,0.0001298,53.2176,26.2836,95.8794,264.2346,0.00050974,7.841e-05,0.0,0 STARLINK-3226,1 49740U 21115S   23309.92522369  .00007841  00000-0  50974-3 0  9997,2 49740  53.2176  26.2836 0001298  95.8794 264.2346 15.08870410106490,6917.787,95.436,540.55,538.755,0.0
49740.0,STARLINK-3226,PAYLOAD,2023-11-06 10:55:23,15.08860844,0.0001532,53.2192,23.9025,97.4546,262.662,7.8634e-05,9.64e-06,0.0,0 STARLINK-3226,1 49740U 21115S   23310.45513811  .00000964  00000-0  78634-4 0  9992,2 49740  53.2192  23.9025 0001532  97.4546 262.6620 15.08860844107685,6917.817,95.436,540.741,538.622,0.0
49740.0,STARLINK-3226,PAYLOAD,2023-11-06 12:30:49,15.08801787,0.000146,53.2178,23.6062,80.6655,279.4502,-0.0010097,-0.00016304,0.0,0 STARLINK-3226,1 49740U 21115S   23310.52140190 -.00016304  00000-0 -10097-2 0  9990,2 49740  53.2178  23.6062 0001460  80.6655 279.4502 15.08801787106586,6917.997,95.44,540.872,538.852,0.0
49740.0,STARLINK-3226,PAYLOAD,2023-11-06 22:03:08,15.08797505,0.0001466,53.218,21.8228,84.8067,275.3092,-0.00085089,-0.00013788,0.0,0 STARLINK-3226,1 49740U 21115S   23310.91885124 -.00013788  00000-0 -85089-3 0  9993,2 49740  53.2180  21.8228 0001466  84.8067 275.3092 15.08797505106640,6918.01,95.44,540.889,538.861,0.0
49740.0,STARLINK-3226,PAYLOAD,2023-11-07 10:46:14,15.08804937,0.0001536,53.2173,19.4418,82.2851,277.8315,-0.00045921,-7.582e-05,0.0,0 STARLINK-3226,1 49740U 21115S   23311.44878029 -.00007582  00000-0 -45921-3 0  9994,2 49740  53.2173  19.4418 0001536  82.2851 277.8315 15.08804937107832,6917.988,95.44,540.915,538.79,0.0
49740.0,STARLINK-3226,PAYLOAD,2023-11-07 12:21:37,15.0880698,0.0001332,53.2175,19.145,86.5061,273.6084,-0.00018854,-3.284e-05,0.0,0 STARLINK-3226,1 49740U 21115S   23311.51501964 -.00003284  00000-0 -18854-3 0  9993,2 49740  53.2175  19.1450 0001332  86.5061 273.6084 15.08806980106736,6917.981,95.44,540.768,538.925,0.0
49740.0,STARLINK-3226,PAYLOAD,2023-11-08 04:15:29,15.08826238,0.0001219,53.22,16.1676,90.9661,269.147,0.00036774,5.567e-05,0.0,0 STARLINK-3226,1 49740U 21115S   23312.17742520  .00005567  00000-0  36774-3 0  9996,2 49740  53.2200  16.1676 0001219  90.9661 269.1470 15.08826238107942,6917.922,95.438,540.631,538.944,0.0
49740.0,STARLINK-3226,PAYLOAD,2023-11-08 10:37:01,15.08846914,0.000167,53.2187,14.9849,74.1311,285.9865,0.00067383,0.00010454,0.0,0 STARLINK-3226,1 49740U 21115S   23312.44238061  .00010454  00000-0  67383-3 0  9997,2 49740  53.2187  14.9849 0001670  74.1311 285.9865 15.08846914107982,6917.859,95.437,540.88,538.569,0.0
49740.0,STARLINK-3226,PAYLOAD,2023-11-08 21:44:43,15.08850813,0.0001745,53.2183,12.904,68.9229,291.195,0.00086594,0.00013524,0.0,0 STARLINK-3226,1 49740U 21115S   23312.90606115  .00013524  00000-0  86594-3 0  9993,2 49740  53.2183  12.9040 0001745  68.9229 291.1950 15.08850813106943,6917.847,95.437,540.92,538.505,0.0
49740.0,STARLINK-3226,PAYLOAD,2023-11-09 10:27:48,15.08850936,0.0001637,53.2184,10.525,72.9429,287.1743,0.00041847,6.38e-05,0.0,0 STARLINK-3226,1 49740U 21115S   23313.43597584  .00006380  00000-0  41847-3 0  9995,2 49740  53.2184  10.5250 0001637  72.9429 287.1743 15.08850936108132,6917.847,95.437,540.844,538.58,0.0
49740.0,STARLINK-3226,PAYLOAD,2023-11-09 13:38:33,15.08863994,0.0001476,53.2185,9.924,102.9788,257.1369,0.00044273,6.77e-05,0.0,0 STARLINK-3226,1 49740U 21115S   23313.56844644  .00006770  00000-0  44273-3 0  9990,2 49740  53.2185   9.9240 0001476 102.9788 257.1369 15.08863994107045,6917.807,95.436,540.693,538.651,0.0
49740.0,STARLINK-3226,PAYLOAD,2023-11-09 23:10:53,15.08846698,0.0001316,53.219,8.1475,66.6242,293.4889,7.0308e-05,8.31e-06,0.0,0 STARLINK-3226,1 49740U 21115S   23313.96589176  .00000831  00000-0  70308-4 0  9991,2 49740  53.2190   8.1475 0001316  66.6242 293.4889 15.08846698108218,6917.86,95.437,540.635,538.815,0.0
